{"type": "FeatureCollection", "features": [ {"type": "Feature", "properties": {"norad_id": 66727, "name": "FLOCK 4H-24", "group": "last-30-days", "lat": 64.76979977652346, "lon": -91.5566766104329, "alt_km": 508.74272505755835, "timestamp": "2025-12-26T19:22:37.605278+00:00", "meta": {"OBJECT_NAME": "FLOCK 4H-24", "OBJECT_ID": "2025-276BP", "EPOCH": "2025-12-26T14:07:39.323712", "MEAN_MOTION": 15.17371826, "ECCENTRICITY": 0.00029153, "INCLINATION": 97.4434, "RA_OF_ASC_NODE": 72.1201, "ARG_OF_PERICENTER": 243.56, "MEAN_ANOMALY": 116.5335, "EPHEMERIS_TYPE": 0, "CLASSIFICATION_TYPE": "U", "NORAD_CAT_ID": 66727, "ELEMENT_SET_NO": 999, "REV_AT_EPOCH": 422, "BSTAR": 0.00028982107, "MEAN_MOTION_DOT": 5.722e-05, "MEAN_MOTION_DDOT": 0}, "tle": {"line1": "1 66727U 25276BP  25360.58864958  .00005722  00000+0  28982-3 0  9996", "line2": "2 66727  97.4434  72.1201 0002915 243.5600 116.5335 15.17371826  4224"}}, "geometry": {"type": "Point", "coordinates": [-91.5566766104329, 64.76979977652346]}}, {"type": "Feature", "properties": {"norad_id": 66728, "name": "FLOCK 4H-25", "group": "last-30-days", "lat": -23.592485300996472, "lon": -110.91712443373713, "alt_km": 516.6682352762173, "timestamp": "2025-12-26T19:22:37.605288+00:00", "meta": {"OBJECT_NAME": "FLOCK 4H-25", "OBJECT_ID": "2025-276BQ", "EPOCH": "2025-12-26T13:44:15.243360", "MEAN_MOTION": 15.18258959, "ECCENTRICITY": 0.00017414, "INCLINATION": 97.439, "RA_OF_ASC_NODE": 72.1231, "ARG_OF_PERICENTER": 114.2946, "MEAN_ANOMALY": 245.847, "EPHEMERIS_TYPE": 0, "CLASSIFICATION_TYPE": "U", "NORAD_CAT_ID": 66728, "ELEMENT_SET_NO": 999, "REV_AT_EPOCH": 350, "BSTAR": 0.00030637006, "MEAN_MOTION_DOT": 6.21e-05, "MEAN_MOTION_DDOT": 0}, "tle": {"line1": "1 66728U 25276BQ  25360.57239865  .00006210  00000+0  30637-3 0  9992", "line2": "2 66728  97.4390  72.1231 0001741 114.2946 245.8470 15.18258959  3500"}}, "geometry": {"type": "Point", "coordinates": [-110.91712443373713, -23.592485300996472]}}, {"type": "Feature", "properties": {"norad_id": 66729, "name": "FLOCK 4H-26", "group": "last-30-days", "lat": 81.39534594220144, "lon": -47.987924091421604, "alt_km": 508.92331526614635, "timestamp": "2025-12-26T19:22:37.605298+00:00", "meta": {"OBJECT_NAME": "FLOCK 4H-26", "OBJECT_ID": "2025-276BR", "EPOCH": "2025-12-26T14:12:50.645376", "MEAN_MOTION": 15.17198109, "ECCENTRICITY": 0.00036272, "INCLINATION": 97.4387, "RA_OF_ASC_NODE": 72.0956, "ARG_OF_PERICENTER": 239.9747, "MEAN_ANOMALY": 120.1127, "EPHEMERIS_TYPE": 0, "CLASSIFICATION_TYPE": "U", "NORAD_CAT_ID": 66729, "ELEMENT_SET_NO": 999, "REV_AT_EPOCH": 422, "BSTAR": 0.00021023694, "MEAN_MOTION_DOT": 4.111e-05, "MEAN_MOTION_DDOT": 0}, "tle": {"line1": "1 66729U 25276BR  25360.59225284  .00004111  00000+0  21024-3 0  9993", "line2": "2 66729  97.4387  72.0956 0003627 239.9747 120.1127 15.17198109  4222"}}, "geometry": {"type": "Point", "coordinates": [-47.987924091421604, 81.39534594220144]}}, {"type": "Feature", "properties": {"norad_id": 66730, "name": "FLOCK 4H-27", "group": "last-30-days", "lat": -10.215254163545538, "lon": -109.00928699792155, "alt_km": 515.324069638993, "timestamp": "2025-12-26T19:22:37.605310+00:00", "meta": {"OBJECT_NAME": "FLOCK 4H-27", "OBJECT_ID": "2025-276BS", "EPOCH": "2025-12-26T13:47:47.082336", "MEAN_MOTION": 15.18133474, "ECCENTRICITY": 0.00013922, "INCLINATION": 97.4365, "RA_OF_ASC_NODE": 72.1109, "ARG_OF_PERICENTER": 129.2823, "MEAN_ANOMALY": 230.8534, "EPHEMERIS_TYPE": 0, "CLASSIFICATION_TYPE": "U", "NORAD_CAT_ID": 66730, "ELEMENT_SET_NO": 999, "REV_AT_EPOCH": 422, "BSTAR": 0.00055841607, "MEAN_MOTION_DOT": 0.00011339, "MEAN_MOTION_DDOT": 0}, "tle": {"line1": "1 66730U 25276BS  25360.57485049  .00011339  00000+0  55842-3 0  9995", "line2": "2 66730  97.4365  72.1109 0001392 129.2823 230.8534 15.18133474  4220"}}, "geometry": {"type": "Point", "coordinates": [-109.00928699792155, -10.215254163545538]}}, {"type": "Feature", "properties": {"norad_id": 66731, "name": "FLOCK 4H-28", "group": "last-30-days", "lat": 80.53793502583532, "lon": -56.08470462185007, "alt_km": 508.8608393759323, "timestamp": "2025-12-26T19:22:37.605322+00:00", "meta": {"OBJECT_NAME": "FLOCK 4H-28", "OBJECT_ID": "2025-276BT", "EPOCH": "2025-12-26T14:12:26.354880", "MEAN_MOTION": 15.17181644, "ECCENTRICITY": 0.00032859, "INCLINATION": 97.4375, "RA_OF_ASC_NODE": 72.0918, "ARG_OF_PERICENTER": 243.8204, "MEAN_ANOMALY": 116.2692, "EPHEMERIS_TYPE": 0, "CLASSIFICATION_TYPE": "U", "NORAD_CAT_ID": 66731, "ELEMENT_SET_NO": 999, "REV_AT_EPOCH": 422, "BSTAR": 0.00034004237, "MEAN_MOTION_DOT": 6.69e-05, "MEAN_MOTION_DDOT": 0}, "tle": {"line1": "1 66731U 25276BT  25360.59197170  .00006690  00000+0  34004-3 0  9994", "line2": "2 66731  97.4375  72.0918 0003285 243.8204 116.2692 15.17181644  4221"}}, "geometry": {"type": "Point", "coordinates": [-56.08470462185007, 80.53793502583532]}}, {"type": "Feature", "properties": {"norad_id": 66732, "name": "FLOCK 4H-29", "group": "last-30-days", "lat": 68.35877323684892, "lon": -88.47606712419373, "alt_km": 507.7502252240283, "timestamp": "2025-12-26T19:22:37.605332+00:00", "meta": {"OBJECT_NAME": "FLOCK 4H-29", "OBJECT_ID": "2025-276BU", "EPOCH": "2025-12-26T14:08:41.141184", "MEAN_MOTION": 15.17472042, "ECCENTRICITY": 0.0001851, "INCLINATION": 97.4362, "RA_OF_ASC_NODE": 72.0901, "ARG_OF_PERICENTER": 253.8548, "MEAN_ANOMALY": 106.2482, "EPHEMERIS_TYPE": 0, "CLASSIFICATION_TYPE": "U", "NORAD_CAT_ID": 66732, "ELEMENT_SET_NO": 999, "REV_AT_EPOCH": 422, "BSTAR": 0.0051508408, "MEAN_MOTION_DOT": 0.00104497, "MEAN_MOTION_DDOT": 0}, "tle": {"line1": "1 66732U 25276BU  25360.58936506  .00104497  00000+0  51508-2 0  9999", "line2": "2 66732  97.4362  72.0901 0001851 253.8548 106.2482 15.17472042  4220"}}, "geometry": {"type": "Point", "coordinates": [-88.47606712419373, 68.35877323684892]}}, {"type": "Feature", "properties": {"norad_id": 66733, "name": "FLOCK 4H-30", "group": "last-30-days", "lat": 74.63085999249982, "lon": -79.2736527416223, "alt_km": 508.6486804010983, "timestamp": "2025-12-26T19:22:37.605344+00:00", "meta": {"OBJECT_NAME": "FLOCK 4H-30", "OBJECT_ID": "2025-276BV", "EPOCH": "2025-12-26T14:10:27.313824", "MEAN_MOTION": 15.17298103, "ECCENTRICITY": 0.00032588, "INCLINATION": 97.4429, "RA_OF_ASC_NODE": 72.1142, "ARG_OF_PERICENTER": 245.0842, "MEAN_ANOMALY": 115.0053, "EPHEMERIS_TYPE": 0, "CLASSIFICATION_TYPE": "U", "NORAD_CAT_ID": 66733, "ELEMENT_SET_NO": 999, "REV_AT_EPOCH": 422, "BSTAR": 0.00038552489, "MEAN_MOTION_DOT": 7.619e-05, "MEAN_MOTION_DDOT": 0}, "tle": {"line1": "1 66733U 25276BV  25360.59059391  .00007619  00000+0  38552-3 0  9992", "line2": "2 66733  97.4429  72.1142 0003258 245.0842 115.0053 15.17298103  4222"}}, "geometry": {"type": "Point", "coordinates": [-79.2736527416223, 74.63085999249982]}}, {"type": "Feature", "properties": {"norad_id": 66734, "name": "FLOCK 4H-31", "group": "last-30-days", "lat": 74.95504050211476, "lon": -78.62251611081894, "alt_km": 509.9588172449403, "timestamp": "2025-12-26T19:22:37.605355+00:00", "meta": {"OBJECT_NAME": "FLOCK 4H-31", "OBJECT_ID": "2025-276BW", "EPOCH": "2025-12-26T14:10:28.536384", "MEAN_MOTION": 15.17035731, "ECCENTRICITY": 0.00066594, "INCLINATION": 97.4366, "RA_OF_ASC_NODE": 72.0903, "ARG_OF_PERICENTER": 220.9149, "MEAN_ANOMALY": 139.1586, "EPHEMERIS_TYPE": 0, "CLASSIFICATION_TYPE": "U", "NORAD_CAT_ID": 66734, "ELEMENT_SET_NO": 999, "REV_AT_EPOCH": 422, "BSTAR": -0.0076055856, "MEAN_MOTION_DOT": -0.00147489, "MEAN_MOTION_DDOT": 0}, "tle": {"line1": "1 66734U 25276BW  25360.59060806 -.00147489  00000+0 -76056-2 0  9998", "line2": "2 66734  97.4366  72.0903 0006659 220.9149 139.1586 15.17035731  4221"}}, "geometry": {"type": "Point", "coordinates": [-78.62251611081894, 74.95504050211476]}}, {"type": "Feature", "properties": {"norad_id": 66735, "name": "FLOCK 4H-32", "group": "last-30-days", "lat": 76.31094787322483, "lon": -75.22050912167389, "alt_km": 508.73647187928964, "timestamp": "2025-12-26T19:22:37.605364+00:00", "meta": {"OBJECT_NAME": "FLOCK 4H-32", "OBJECT_ID": "2025-276BX", "EPOCH": "2025-12-26T14:10:57.949536", "MEAN_MOTION": 15.17274605, "ECCENTRICITY": 0.00035953, "INCLINATION": 97.4421, "RA_OF_ASC_NODE": 72.1102, "ARG_OF_PERICENTER": 240.8543, "MEAN_ANOMALY": 119.2331, "EPHEMERIS_TYPE": 0, "CLASSIFICATION_TYPE": "U", "NORAD_CAT_ID": 66735, "ELEMENT_SET_NO": 999, "REV_AT_EPOCH": 422, "BSTAR": 0.00037051002, "MEAN_MOTION_DOT": 7.315e-05, "MEAN_MOTION_DDOT": 0}, "tle": {"line1": "1 66735U 25276BX  25360.59094849  .00007315  00000+0  37051-3 0  9997", "line2": "2 66735  97.4421  72.1102 0003595 240.8543 119.2331 15.17274605  4223"}}, "geometry": {"type": "Point", "coordinates": [-75.22050912167389, 76.31094787322483]}}, {"type": "Feature", "properties": {"norad_id": 66736, "name": "FLOCK 4H-33", "group": "last-30-days", "lat": -27.31903615915319, "lon": -111.50428431693288, "alt_km": 515.6185407934372, "timestamp": "2025-12-26T19:22:37.605374+00:00", "meta": {"OBJECT_NAME": "FLOCK 4H-33", "OBJECT_ID": "2025-276BY", "EPOCH": "2025-12-26T13:43:16.940640", "MEAN_MOTION": 15.18348619, "ECCENTRICITY": 0.00028471, "INCLINATION": 97.442, "RA_OF_ASC_NODE": 72.1355, "ARG_OF_PERICENTER": 150.4227, "MEAN_ANOMALY": 209.7169, "EPHEMERIS_TYPE": 0, "CLASSIFICATION_TYPE": "U", "NORAD_CAT_ID": 66736, "ELEMENT_SET_NO": 999, "REV_AT_EPOCH": 422, "BSTAR": 0.00057360525, "MEAN_MOTION_DOT": 0.00011723, "MEAN_MOTION_DDOT": 0}, "tle": {"line1": "1 66736U 25276BY  25360.57172385  .00011723  00000+0  57361-3 0  9992", "line2": "2 66736  97.4420  72.1355 0002847 150.4227 209.7169 15.18348619  4229"}}, "geometry": {"type": "Point", "coordinates": [-111.50428431693288, -27.31903615915319]}}]}